KUZGTU 1 (RS47S)        
1 57217U 23091AV  26160.51182912  .00011116  00000+0  38819-3 0  9992
2 57217  97.5068 224.9144 0012345 121.6096 238.6350 15.29683401163203
SONATE-2                
1 59112U 24043Q   26160.36898837  .00034035  00000+0  45197-3 0  9991
2 59112  97.5522 310.2893 0006662 222.2794 137.7948 15.58132501126676
MESAT1                  
1 60209U 24125G   26160.35852787  .00048110  00000+0  54218-3 0  9997
2 60209  97.2316  17.6671 0008831 234.4454 125.5982 15.62357487108347
OOV-CUBE (TUBSAT-30)    
1 60240U 24128F   26160.53649286  .00002156  00000+0  17279-3 0  9999
2 60240  61.9950 252.2499 0045584 132.0465 228.4520 15.02741636104962
COLIBRI-S (RS67S)       
1 61746U 24199M   26160.49661720  .00020556  00000+0  40252-3 0  9992
2 61746  97.3009  34.2825 0006531 315.9012  44.1717 15.47404407136228
HORS 3 (RS81S)          
1 61753U 24199U   26160.49465503  .00032593  00000+0  49629-3 0  9992
2 61753  97.2991  36.1851 0004198 324.5591  35.5384 15.54439035136362
HORS 4 (RS82S)          
1 61754U 24199V   26160.47800786  .00044462  00000+0  57161-3 0  9995
2 61754  97.2941  37.3207 0003165 311.4248  48.6736 15.58961963136442
ARCTICSAT 1 (RS74S)     
1 61762U 24199AD  26159.53404542  .01003063  58354-3  11763-2 0  9998
2 61762  97.2853  43.1177 0008139 201.8763 158.2174 16.08763925136734
SIT-2086                
1 61764U 24199AF  26160.46355279  .00032903  00000+0  53625-3 0  9995
2 61764  97.2949  36.6568 0004458 295.1942  64.8849 15.52550657133235
HYPERVIEW 1G (RS66S)    
1 61772U 24199AP  26159.86541317  .00099538  00000+0  70384-3 0  9994
2 61772  97.2892  39.1772 0002038 275.6858  84.4174 15.73707202133363
ALTAIR (RS65S)          
1 61779U 24199AW  26160.49461285  .00010560  00000+0  29443-3 0  9995
2 61779  97.3045  29.8968 0011887 341.9054  18.1766 15.36875966135939
ASRTU-1 (AO-123)        
1 61781U 24199AY  26160.47583450  .00006874  00000+0  20065-3 0  9999
2 61781  97.3016  29.2165 0013101 344.0825  16.0005 15.35564508132749
SAMSAT-IONOSPHERE (RS7*)
1 61784U 24199BB  26160.47716788  .00041592  00000+0  57624-3 0  9991
2 61784  97.2962  36.1865 0006232 316.9004  43.1763 15.56954336136368
RTU MIREA 1 (RS51S)     
1 61785U 24199BC  26160.51828801  .00051026  00000+0  62375-3 0  9999
2 61785  97.2952  37.0215 0005617 309.6342  50.4419 15.60253180133277
TEVEL2-4                
1 63213U 25052D   26160.42210497  .00016258  00000+0  49079-3 0  9996
2 63213  97.3919  56.8032 0004488 117.1675 243.0026 15.34336880 68924
TEVEL2-5                
1 63214U 25052E   26160.44174178  .00016872  00000+0  51188-3 0  9990
2 63214  97.3913  56.7715 0004440 119.7203 240.4482 15.34169212 68929
TEVEL2-6                
1 63215U 25052F   26160.45389219  .00017006  00000+0  51654-3 0  9994
2 63215  97.3915  56.7681 0004471 119.5298 240.6391 15.34131711 68924
TEVEL2-1                
1 63217U 25052H   26160.21926554  .00015298  00000+0  47283-3 0  9993
2 63217  97.3890  56.1670 0004303 128.3917 231.7713 15.33600892 68873
TEVEL2-3                
1 63218U 25052J   26160.27943529  .00016163  00000+0  49846-3 0  9990
2 63218  97.3888  56.2474 0004412 129.8518 230.3113 15.33659205 68880
TEVEL2-2                
1 63219U 25052K   26159.69763688  .00018164  00000+0  56087-3 0  9999
2 63219  97.3887  55.6477 0004230 131.0442 229.1167 15.33595395 68799
TEVEL2-9                
1 63237U 25052AD  26160.18680802  .00014556  00000+0  47809-3 0  9994
2 63237  97.3949  55.5291 0007021 153.2929 206.8676 15.31651687 68802
TEVEL2-7                
1 63238U 25052AE  26160.42222551  .00013645  00000+0  45228-3 0  9996
2 63238  97.3953  55.6832 0007142 153.2033 206.9579 15.31369912 68833
TEVEL2-8                
1 63239U 25052AF  26160.43039691  .00013793  00000+0  45738-3 0  9999
2 63239  97.3952  55.6688 0007154 153.7009 206.4597 15.31353738 68837
INNOSAT 16 (RS92S7)     
1 64878U 25155C   26160.52387126  .00005359  00000+0  21502-3 0  9994
2 64878  97.4557 127.6765 0009627 202.9249 157.1561 15.25375946 79502
GEOSCAN 6 (RS92S6)      
1 64879U 25155D   26160.52999146  .00009408  00000+0  32621-3 0  9999
2 64879  97.4549 129.0530 0007311 188.3013 171.8108 15.30007612 79591
GEOSCAN 1 (RS92S1)      
1 64880U 25155E   26160.53538821  .00009966  00000+0  33926-3 0  9999
2 64880  97.4546 129.1997 0007249 187.9564 172.1562 15.30591459 79601
239ALFEROV (RS61S)      
1 64881U 25155F   26160.51584687  .00012928  00000+0  41094-3 0  9996
2 64881  97.4547 129.7161 0006930 184.4706 175.6476 15.32734436 79639
GEOSCAN 2 (RS92S2)      
1 64890U 25155Q   26160.53042749  .00009949  00000+0  33588-3 0  9994
2 64890  97.4545 129.3442 0007128 173.4176 186.7159 15.30863086 79615
GEOSCAN 5 (RS92S5)      
1 64891U 25155R   26160.50646294  .00012866  00000+0  40502-3 0  9993
2 64891  97.4540 129.8411 0005607 187.5062 172.6097 15.33053354 79642
GEOSCAN 4 (RS92S4)      
1 64892U 25155S   26160.49141513  .00013087  00000+0  40999-3 0  9992
2 64892  97.4543 129.8723 0005664 187.9923 172.1230 15.33202501 79649
